[{"OBJECT_NAME":"SUPERVIEW NEO-3 01","OBJECT_ID":"2024-072A","EPOCH":"2026-03-09T22:59:09.446208","MEAN_MOTION":15.23128449,"ECCENTRICITY":0.00029396,"INCLINATION":97.4184,"RA_OF_ASC_NODE":150.1524,"ARG_OF_PERICENTER":104.5976,"MEAN_ANOMALY":255.5587,"EPHEMERIS_TYPE":0,"CLASSIFICATION_TYPE":"U","NORAD_CAT_ID":59510,"ELEMENT_SET_NO":999,"REV_AT_EPOCH":10559,"BSTAR":0.00057697543,"MEAN_MOTION_DOT":0.00013563,"MEAN_MOTION_DDOT":0},{"OBJECT_NAME":"SHIYAN-31","OBJECT_ID":"2025-227A","EPOCH":"2026-03-09T23:00:16.199712","MEAN_MOTION":15.23071011,"ECCENTRICITY":0.00102897,"INCLINATION":80.0014,"RA_OF_ASC_NODE":266.3496,"ARG_OF_PERICENTER":145.5638,"MEAN_ANOMALY":214.6259,"EPHEMERIS_TYPE":0,"CLASSIFICATION_TYPE":"U","NORAD_CAT_ID":65945,"ELEMENT_SET_NO":999,"REV_AT_EPOCH":2244,"BSTAR":0.00029737952,"MEAN_MOTION_DOT":7.034e-5,"MEAN_MOTION_DDOT":0}]
